#aV2020  6 21  0  0  0.00000000     288 DD+AD WGS84 FIT  NGA
## 2111      0.00000000   300.00000000 59021 0.0000000000000
+   32     1  2  3  4  5  6  7  8  9 10 11 12 13 14 15 16 17
+         18 19 20 21 22 23 24 25 26 27 28 29 30 31 32  0  0
+          0  0  0  0  0  0  0  0  0  0  0  0  0  0  0  0  0
+          0  0  0  0  0  0  0  0  0  0  0  0  0  0  0  0  0
+          0  0  0  0  0  0  0  0  0  0  0  0  0  0  0  0  0
++         2  2  2  2  2  2  2  2  2  2  2  2  2  2  2  2  2
++         2  2  2  2  2  2  2  2  2  2  2  2  2  2  2  0  0
++         0  0  0  0  0  0  0  0  0  0  0  0  0  0  0  0  0
++         0  0  0  0  0  0  0  0  0  0  0  0  0  0  0  0  0
++         0  0  0  0  0  0  0  0  0  0  0  0  0  0  0  0  0
%c cc cc ccc ccc cccc cccc cccc cccc ccccc ccccc ccccc ccccc
%c cc cc ccc ccc cccc cccc cccc cccc ccccc ccccc ccccc ccccc
%f  0.0000000  0.000000000  0.00000000000  0.000000000000000
%f  0.0000000  0.000000000  0.00000000000  0.000000000000000
%i    0    0    0    0      0      0      0      0         0
%i    0    0    0    0      0      0      0      0         0
/*      NGA, ST. LOUIS,MO.                                  
/*   EPHEMERIS COMPUTED FROM 2 DAYS OF DATA                 
/*   EPOCHA v5 SMOOTHER                                     
/*   G1762 IERS2010 SATAF SATAPC                            
*  2020  6 21 23 30  0.00000000
P  1  -6052.937498  17317.794843 -19305.957305     13.990182                    
V  1 -22193.158774   9460.484854  15956.471223      0.078014                    
P  2  21939.682065 -14810.225628   2435.412063   -475.790777                    
V  2   3449.387776   1288.146021 -31567.243749     -0.058949                    
P  3   4415.380929  18453.344800 -18690.371385   -216.383505                    
V  3 -20329.716783 -11962.136763 -16565.591564     -0.120693                    
P  4     21.195681  26297.478552   3614.398935   -105.436134                    
V  4  -3275.857305   4285.906197 -31304.675059     -0.047763                    
P  5  15182.763264  -7585.722330  20337.105646    -15.120565                    
V  5  21690.073250  14575.806756 -10486.537734     -0.007546                    
P  6  24371.923568  -5223.296336  -9184.545224   -292.285753                    
V  6  -9599.410011   6974.731682 -29230.432499     -0.057683                    
P  7  13035.467378  10356.564014  21099.647176   -309.920786                    
V  7 -23195.420360  11771.725010   8193.730606     -0.087871                    
P  8  -6706.758219  24259.156201   8074.135788    -38.362108                    
V  8  -2079.609319 -10410.133176  29838.842330     -0.012758                    
P  9   8678.657386  21068.779874  13585.960539   -240.516026                    
V  9  -3253.870175  17222.294046 -24557.385450     -0.067698                    
P 10 -23659.248365 -10869.550124  -5766.274698   -378.170507                    
V 10  -4846.271836  -6055.286428  30594.334333     -0.110338                    
P 11 -10062.909476  23628.623445  -7881.546882   -242.146785                    
V 11  -8529.606616   5308.104945  28269.465146      0.106381                    
P 12  -3262.249206 -18626.376716 -18950.423734    103.303238                    
V 12  19214.877167  13515.352570 -16653.100155     -0.045279                    
P 13  13044.405441 -18690.458085  13437.202277     20.312957                    
V 13  -1156.930959  17379.094349  25171.705094      0.032237                    
P 14 -15370.779438   4371.315469 -20831.335285     -4.179905                    
V 14   3069.816829 -27149.866352  -8012.002720      0.027559                    
P 15   4120.758073 -25015.469386   6919.425030   -222.653814                    
V 15   4415.236596   9156.515768  29523.404830      0.025886                    
P 16 -13751.296028   7381.550996  21341.190037   -173.366597                    
V 16 -21227.553959 -17457.878887  -7134.212388     -0.046993                    
P 17  13749.856947   5788.178282 -21559.183583    284.396960                    
V 17  -3756.146728  28069.151092   4999.643782      0.058764                    
P 18 -12358.655113 -10382.493864  21086.900156    226.642037                    
V 18  23993.322097 -11923.894066   8162.058846      0.103921                    
P 19  15275.560438  -2894.522820 -21831.457689   -142.052839                    
V 19  -4058.925926  26644.970249  -6495.735290      0.050742                    
P 20 -20975.504132 -15259.785959   6158.500716    527.463258                    
V 20   8556.356712    471.992148  29705.058924     -0.000883                    
P 21 -20865.262888  -1769.368864  16946.777371     14.520590                    
V 21  16519.056644 -11813.797328  20290.523274      0.047173                    
P 22  -3466.109861  15800.024731 -20875.355704   -776.689867                    
V 22 -24054.555013 -12465.188922  -5242.655934      0.021312                    
P 23  13795.325129  11859.652814  19629.469276   -103.738985                    
V 23  -2487.845070  24179.306145 -13506.714039      0.033128                    
P 24   6977.181696 -18802.775831 -17428.207721    -14.642716                    
V 24  20168.956804  -8988.777632  18344.281295     -0.005213                    
P 25 -13468.800982 -19437.273241 -12589.587066     15.394767                    
V 25  13972.903779   6984.112297 -25976.333363      0.038003                    
P 26 -22206.991422  -1292.863563  14641.645563    229.718138                    
V 26 -14652.603711 -11678.183444 -22978.167552      0.069746                    
P 27 -12217.140161  16440.812982  16573.979457   -326.652019                    
V 27   -402.730021 -21483.141283  21156.268741     -0.098278                    
P 28  22356.455834  12031.300625  -6954.350157    706.535898                    
V 28   5980.707405   7920.763910  30549.151362     -0.034114                    
P 29  -4008.441421 -23911.811186  10761.331214   -133.244469                    
V 29   3613.379059 -13349.720124 -28224.937173     -0.086723                    
P 30  21531.051698   2689.974468  15505.587111   -246.600961                    
V 30 -16882.161130  10187.829467  21521.158884     -0.079101                    
P 31 -25078.878531   5803.795770  -7481.226048    -50.673239                    
V 31   7473.593951  -6071.825314 -29483.480118     -0.025196                    
P 32 -14930.443085  -4301.017715 -21468.479225    304.207092                    
V 32   1861.667698 -27402.665680   4032.939158      0.067373                    
EOF
